{
    "CCSDS_OMM_VERS": "3.0",
    "COMMENT": "GENERATED VIA SPACE-TRACK.ORG API",
    "CREATION_DATE": "2025-05-22T17:14:14",
    "ORIGINATOR": "18 SPCS",
    "OBJECT_NAME": "GALILEO 24 (2C0)",
    "OBJECT_ID": "2018-060D",
    "CENTER_NAME": "EARTH",
    "REF_FRAME": "TEME",
    "TIME_SYSTEM": "UTC",
    "MEAN_ELEMENT_THEORY": "SGP4",
    "EPOCH": "2025-05-21T21:18:12.495168",
    "MEAN_MOTION": "1.70475304",
    "ECCENTRICITY": "0.00024940",
    "INCLINATION": "57.2757",
    "RA_OF_ASC_NODE": "352.3465",
    "ARG_OF_PERICENTER": "322.9406",
    "MEAN_ANOMALY": "37.0851",
    "EPHEMERIS_TYPE": "0",
    "CLASSIFICATION_TYPE": "U",
    "NORAD_CAT_ID": "43567",
    "ELEMENT_SET_NO": "999",
    "REV_AT_EPOCH": "4250",
    "BSTAR": "0.00000000000000",
    "MEAN_MOTION_DOT": "-0.00000067",
    "MEAN_MOTION_DDOT": "0.0000000000000",
    "SEMIMAJOR_AXIS": "29600.169",
    "PERIOD": "844.697",
    "APOAPSIS": "23229.416",
    "PERIAPSIS": "23214.652",
    "OBJECT_TYPE": "PAYLOAD",
    "RCS_SIZE": "LARGE",
    "COUNTRY_CODE": "ESA",
    "LAUNCH_DATE": "2018-07-25",
    "SITE": "FRGUI",
    "DECAY_DATE": null,
    "FILE": "4736220",
    "GP_ID": "288145046",
    "TLE_LINE0": "0 GALILEO 24 (2C0)",
    "TLE_LINE1": "1 43567U 18060D   25141.88764462 -.00000067  00000-0  00000-0 0  9992",
    "TLE_LINE2": "2 43567  57.2757 352.3465 0002494 322.9406  37.0851  1.70475304 42509"
}